OBJECT_NAME,OBJECT_ID,EPOCH,MEAN_MOTION,ECCENTRICITY,INCLINATION,RA_OF_ASC_NODE,ARG_OF_PERICENTER,MEAN_ANOMALY,EPHEMERIS_TYPE,CLASSIFICATION_TYPE,NORAD_CAT_ID,ELEMENT_SET_NO,REV_AT_EPOCH,BSTAR,MEAN_MOTION_DOT,MEAN_MOTION_DDOT
STARLINK-37963,2026-147F,2026-07-16T01:14:19.459104,15.81118228,.0000926,97.2820,233.4970,159.0836,201.0470,0,U,69709,999,399,.16609E-2,.335137E-2,0
STARLINK-37969,2026-147G,2026-07-16T01:13:14.449152,15.80942038,.0001557,97.2823,233.4991,129.2781,230.8626,0,U,69710,999,399,.12628E-2,.25025E-2,0
STARLINK-37956,2026-147H,2026-07-16T01:12:09.312192,15.80930615,.0002672,97.2825,233.5003,127.4074,232.7438,0,U,69711,999,399,.97096E-3,.190985E-2,0
STARLINK-38043,2026-147J,2026-07-16T01:11:04.390368,15.80887655,.0001668,97.2811,233.4992,127.6390,232.5030,0,U,69712,999,399,.10994E-2,.216458E-2,0
STARLINK-38020,2026-147K,2026-07-16T01:09:59.603328,15.80913022,.000197,97.2825,233.5016,127.4195,232.7252,0,U,69713,999,399,.91956E-3,.180492E-2,0
STARLINK-38059,2026-147L,2026-07-16T01:08:54.466368,15.80931126,.0003242,97.2826,233.5034,137.1623,222.9898,0,U,69714,999,399,.96491E-3,.189788E-2,0
STARLINK-38061,2026-147M,2026-07-16T01:07:49.713024,15.80917545,.0001568,97.2830,233.5047,122.9852,237.1567,0,U,69715,999,399,.94036E-3,.184702E-2,0
STARLINK-38060,2026-147N,2026-07-16T01:06:44.839584,15.80911040,.0001219,97.2827,233.5055,115.3015,244.8380,0,U,69716,999,399,.90669E-3,.177887E-2,0
STARLINK-38040,2026-147P,2026-07-16T01:05:39.939360,15.81099813,.0001031,97.2816,233.5052,154.1217,206.0103,0,U,69717,999,399,.15354E-2,.308589E-2,0
STARLINK-37989,2026-147Q,2026-07-16T04:00:01.998720,15.80857360,.0001273,97.2824,233.6371,81.7960,251.2364,0,U,69718,999,398,-.5173E-3,-.98307E-3,0
STARLINK-38039,2026-147R,2026-07-16T01:03:30.017952,15.80958408,.0001066,97.2826,233.5074,135.8086,224.3268,0,U,69719,999,399,.14565E-2,.290206E-2,0
STARLINK-38003,2026-147S,2026-07-16T01:02:25.063296,15.80933235,.0003704,97.2826,233.5082,121.1059,239.0573,0,U,69720,999,399,.92936E-3,.182675E-2,0
STARLINK-38014,2026-147T,2026-07-16T01:01:20.165664,15.80913089,.0001883,97.2825,233.5090,114.6406,245.5059,0,U,69721,999,399,.86794E-3,.170149E-2,0
STARLINK-37915,2026-147U,2026-07-16T02:31:24.589344,15.80802380,.0001063,97.2820,233.5758,97.0444,263.0945,0,U,69722,999,400,.12748E-2,.251051E-2,0
STARLINK-38007,2026-147V,2026-07-16T04:00:01.998720,15.80872532,.0001302,97.2824,233.6375,88.5307,247.9879,0,U,69723,999,398,-.6492E-3,-.123076E-2,0
STARLINK-38008,2026-147W,2026-07-16T00:58:05.327616,15.81125730,.0001945,97.2829,233.5128,132.5495,227.5938,0,U,69724,999,399,.1644E-2,.331699E-2,0
STARLINK-38021,2026-147X,2026-07-16T02:28:09.664896,15.80792703,.0002031,97.2829,233.5807,109.1478,251.0011,0,U,69725,999,400,.11264E-2,.220938E-2,0
STARLINK-38015,2026-147Y,2026-07-16T02:27:04.826016,15.80800028,.0001269,97.2826,233.5818,100.8246,259.3165,0,U,69726,999,400,.12559E-2,.247183E-2,0
STARLINK-38010,2026-147Z,2026-07-16T01:33:06.166080,15.75223200,.000144,97.2829,233.4791,44.0461,316.0918,0,U,69727,999,399,.74793E-3,.11308E-2,0
SXM-11,2026-148A,2026-07-16T03:23:14.857152,1.00269654,.0001935,0.1094,265.2326,179.0008,140.0475,0,U,69728,999,33,0,0,0
HAIYANG-2E,2026-149A,2026-07-13T15:15:28.816416,13.79314717,.0001579,99.3454,201.5813,93.5996,266.5337,0,U,69737,999,161,-.45287E-4,-.91E-6,0
CZ-4B R/B,2026-149B,2026-07-13T15:39:16.104672,14.30067210,.01981969,99.3217,202.5607,334.5310,24.6204,0,U,69738,999,191,.33596551E-4,.49E-6,0
STARLINK-38033,2026-150A,2026-07-16T02:20:13.784064,15.80807440,.0001153,97.2836,35.5107,87.9453,272.1947,0,U,69739,999,346,.1203E-2,.236549E-2,0
STARLINK-38076,2026-150B,2026-07-16T02:51:46.888416,15.75190961,.0002855,97.2832,35.4801,43.7898,316.3593,0,U,69740,999,346,.80617E-3,.121868E-2,0
STARLINK-38074,2026-150C,2026-07-16T02:16:30.832320,15.80835689,.0001281,97.2833,35.5137,86.2259,273.9156,0,U,69741,999,346,.27498E-3,.52896E-3,0
STARLINK-38041,2026-150D,2026-07-14T12:16:40.240704,15.80925154,.00013947,97.2822,33.8415,105.4157,254.7266,0,U,69742,999,321,.10042928E-2,.19763E-2,0
STARLINK-38087,2026-150E,2026-07-16T04:00:01.998720,15.81100398,.0001831,97.2858,35.5932,77.6128,339.8816,0,U,69743,999,345,-.44754E-2,-.794007E-2,0
STARLINK-38078,2026-150F,2026-07-16T02:13:15.398112,15.80806887,.0001312,97.2829,35.5165,115.7902,244.3502,0,U,69744,999,346,.90096E-3,.175884E-2,0
STARLINK-38047,2026-150G,2026-07-14T12:13:16.222656,15.80859566,.00036662,97.2820,33.8437,125.3440,234.8171,0,U,69745,999,321,.71675095E-3,.139688E-2,0
STARLINK-38046,2026-150H,2026-07-16T02:09:20.524032,15.80805019,.0001789,97.2833,35.5211,81.3402,278.8068,0,U,69746,999,346,.89515E-3,.174715E-2,0
